[{"OBJECT_NAME":"ONEWEB-0094","OBJECT_ID":"2020-020AC","EPOCH":"2026-06-14T02:08:56.829696","MEAN_MOTION":13.17647426,"ECCENTRICITY":0.0001631,"INCLINATION":87.9145,"RA_OF_ASC_NODE":6.4651,"ARG_OF_PERICENTER":85.1012,"MEAN_ANOMALY":275.0306,"EPHEMERIS_TYPE":0,"CLASSIFICATION_TYPE":"U","NORAD_CAT_ID":45450,"ELEMENT_SET_NO":999,"REV_AT_EPOCH":30590,"BSTAR":9.977500000000001e-05,"MEAN_MOTION_DOT":5.2e-07,"MEAN_MOTION_DDOT":0.0},{"OBJECT_NAME":"ONEWEB-0087","OBJECT_ID":"2020-020AD","EPOCH":"2026-06-14T03:10:04.164960","MEAN_MOTION":13.11416488,"ECCENTRICITY":0.0001716,"INCLINATION":87.8907,"RA_OF_ASC_NODE":21.6503,"ARG_OF_PERICENTER":75.8005,"MEAN_ANOMALY":284.3314,"EPHEMERIS_TYPE":0,"CLASSIFICATION_TYPE":"U","NORAD_CAT_ID":45451,"ELEMENT_SET_NO":999,"REV_AT_EPOCH":30218,"BSTAR":0.001432,"MEAN_MOTION_DOT":5.2e-06,"MEAN_MOTION_DDOT":0.0},{"OBJECT_NAME":"ONEWEB-0082","OBJECT_ID":"2020-020AE","EPOCH":"2026-06-14T03:05:12.022368","MEAN_MOTION":13.1141799,"ECCENTRICITY":0.0001908,"INCLINATION":87.8898,"RA_OF_ASC_NODE":21.6679,"ARG_OF_PERICENTER":70.5713,"MEAN_ANOMALY":289.5621,"EPHEMERIS_TYPE":0,"CLASSIFICATION_TYPE":"U","NORAD_CAT_ID":45452,"ELEMENT_SET_NO":999,"REV_AT_EPOCH":30227,"BSTAR":0.0015685,"MEAN_MOTION_DOT":5.69e-06,"MEAN_MOTION_DDOT":0.0},{"OBJECT_NAME":"ONEWEB-0050","OBJECT_ID":"2020-020AF","EPOCH":"2026-06-14T04:31:00.771168","MEAN_MOTION":14.90371193,"ECCENTRICITY":0.0003617,"INCLINATION":88.9301,"RA_OF_ASC_NODE":233.6175,"ARG_OF_PERICENTER":33.8639,"MEAN_ANOMALY":326.282,"EPHEMERIS_TYPE":0,"CLASSIFICATION_TYPE":"U","NORAD_CAT_ID":45453,"ELEMENT_SET_NO":999,"REV_AT_EPOCH":33993,"BSTAR":0.00025864999999999997,"MEAN_MOTION_DOT":2.537e-05,"MEAN_MOTION_DDOT":0.0},{"OBJECT_NAME":"ONEWEB-0034","OBJECT_ID":"2020-020AG","EPOCH":"2026-06-14T02:09:24.522624","MEAN_MOTION":13.11423504,"ECCENTRICITY":0.0001736,"INCLINATION":87.8897,"RA_OF_ASC_NODE":21.6849,"ARG_OF_PERICENTER":84.9654,"MEAN_ANOMALY":275.1672,"EPHEMERIS_TYPE":0,"CLASSIFICATION_TYPE":"U","NORAD_CAT_ID":45454,"ELEMENT_SET_NO":999,"REV_AT_EPOCH":30218,"BSTAR":-0.0027045999999999997,"MEAN_MOTION_DOT":-9.46e-06,"MEAN_MOTION_DDOT":0.0},{"OBJECT_NAME":"ONEWEB-0060","OBJECT_ID":"2020-020AH","EPOCH":"2026-06-14T02:54:23.313888","MEAN_MOTION":13.11418619,"ECCENTRICITY":0.0001425,"INCLINATION":87.8891,"RA_OF_ASC_NODE":21.677,"ARG_OF_PERICENTER":50.5662,"MEAN_ANOMALY":309.5592,"EPHEMERIS_TYPE":0,"CLASSIFICATION_TYPE":"U","NORAD_CAT_ID":45455,"ELEMENT_SET_NO":999,"REV_AT_EPOCH":30214,"BSTAR":0.0013077,"MEAN_MOTION_DOT":4.76e-06,"MEAN_MOTION_DDOT":0.0},{"OBJECT_NAME":"ONEWEB-0086","OBJECT_ID":"2020-020AJ","EPOCH":"2026-06-14T02:23:39.718464","MEAN_MOTION":13.11416849,"ECCENTRICITY":0.0001058,"INCLINATION":87.89,"RA_OF_ASC_NODE":21.6768,"ARG_OF_PERICENTER":76.6961,"MEAN_ANOMALY":283.4285,"EPHEMERIS_TYPE":0,"CLASSIFICATION_TYPE":"U","NORAD_CAT_ID":45456,"ELEMENT_SET_NO":999,"REV_AT_EPOCH":30220,"BSTAR":-0.0010775000000000001,"MEAN_MOTION_DOT":-3.69e-06,"MEAN_MOTION_DDOT":0.0},{"OBJECT_NAME":"ONEWEB-0088","OBJECT_ID":"2020-020AK","EPOCH":"2026-06-14T03:41:59.474976","MEAN_MOTION":13.11416154,"ECCENTRICITY":0.0002193,"INCLINATION":87.8906,"RA_OF_ASC_NODE":21.638,"ARG_OF_PERICENTER":80.8124,"MEAN_ANOMALY":279.3252,"EPHEMERIS_TYPE":0,"CLASSIFICATION_TYPE":"U","NORAD_CAT_ID":45457,"ELEMENT_SET_NO":999,"REV_AT_EPOCH":30214,"BSTAR":-0.0006520300000000001,"MEAN_MOTION_DOT":-2.18e-06,"MEAN_MOTION_DDOT":0.0},{"OBJECT_NAME":"ONEWEB-0102","OBJECT_ID":"2020-100A","EPOCH":"2026-06-14T05:41:11.554656","MEAN_MOTION":13.12442778,"ECCENTRICITY":0.0001579,"INCLINATION":87.8938,"RA_OF_ASC_NODE":351.2622,"ARG_OF_PERICENTER":96.6756,"MEAN_ANOMALY":263.4553,"EPHEMERIS_TYPE":0,"CLASSIFICATION_TYPE":"U","NORAD_CAT_ID":47258,"ELEMENT_SET_NO":999,"REV_AT_EPOCH":26434,"BSTAR":-0.0017337,"MEAN_MOTION_DOT":-6.11e-06,"MEAN_MOTION_DDOT":0.0},{"OBJECT_NAME":"ONEWEB-0109","OBJECT_ID":"2020-100B","EPOCH":"2026-06-14T05:53:23.634816","MEAN_MOTION":13.12445187,"ECCENTRICITY":0.0001817,"INCLINATION":87.8948,"RA_OF_ASC_NODE":351.2438,"ARG_OF_PERICENTER":95.6877,"MEAN_ANOMALY":264.4459,"EPHEMERIS_TYPE":0,"CLASSIFICATION_TYPE":"U","NORAD_CAT_ID":47259,"ELEMENT_SET_NO":999,"REV_AT_EPOCH":26417,"BSTAR":-0.0008158600000000001,"MEAN_MOTION_DOT":-2.81e-06,"MEAN_MOTION_DDOT":0.0},{"OBJECT_NAME":"ONEWEB-0110","OBJECT_ID":"2020-100C","EPOCH":"2026-06-14T06:32:26.395008","MEAN_MOTION":13.12443931,"ECCENTRICITY":0.0001548,"INCLINATION":87.8949,"RA_OF_ASC_NODE":351.2227,"ARG_OF_PERICENTER":87.8757,"MEAN_ANOMALY":272.2548,"EPHEMERIS_TYPE":0,"CLASSIFICATION_TYPE":"U","NORAD_CAT_ID":47260,"ELEMENT_SET_NO":999,"REV_AT_EPOCH":26434,"BSTAR":0.0011738,"MEAN_MOTION_DOT":4.35e-06,"MEAN_MOTION_DDOT":0.0},{"OBJECT_NAME":"ONEWEB-0111","OBJECT_ID":"2020-100D","EPOCH":"2026-06-14T05:26:33.324576","MEAN_MOTION":13.12440602,"ECCENTRICITY":0.0001766,"INCLINATION":87.8948,"RA_OF_ASC_NODE":351.2501,"ARG_OF_PERICENTER":86.9715,"MEAN_ANOMALY":273.1616,"EPHEMERIS_TYPE":0,"CLASSIFICATION_TYPE":"U","NORAD_CAT_ID":47261,"ELEMENT_SET_NO":999,"REV_AT_EPOCH":26417,"BSTAR":-0.0007382900000000001,"MEAN_MOTION_DOT":-2.53e-06,"MEAN_MOTION_DDOT":0.0},{"OBJECT_NAME":"ONEWEB-0114","OBJECT_ID":"2020-100E","EPOCH":"2026-06-14T06:10:28.575552","MEAN_MOTION":13.12444998,"ECCENTRICITY":0.0002005,"INCLINATION":87.8949,"RA_OF_ASC_NODE":351.2418,"ARG_OF_PERICENTER":96.2295,"MEAN_ANOMALY":263.9062,"EPHEMERIS_TYPE":0,"CLASSIFICATION_TYPE":"U","NORAD_CAT_ID":47262,"ELEMENT_SET_NO":999,"REV_AT_EPOCH":26413,"BSTAR":0.00014533,"MEAN_MOTION_DOT":6.5e-07,"MEAN_MOTION_DDOT":0.0},{"OBJECT_NAME":"ONEWEB-0117","OBJECT_ID":"2020-100F","EPOCH":"2026-06-13T22:39:09.447840","MEAN_MOTION":13.1244431,"ECCENTRICITY":0.0001763,"INCLINATION":87.8946,"RA_OF_ASC_NODE":351.2952,"ARG_OF_PERICENTER":90.5237,"MEAN_ANOMALY":269.6093,"EPHEMERIS_TYPE":0,"CLASSIFICATION_TYPE":"U","NORAD_CAT_ID":47263,"ELEMENT_SET_NO":999,"REV_AT_EPOCH":26410,"BSTAR":-0.00039825,"MEAN_MOTION_DOT":-1.31e-06,"MEAN_MOTION_DDOT":0.0},{"OBJECT_NAME":"ONEWEB-0118","OBJECT_ID":"2020-100G","EPOCH":"2026-06-14T04:57:17.953056","MEAN_MOTION":13.12442145,"ECCENTRICITY":0.0002135,"INCLINATION":87.8947,"RA_OF_ASC_NODE":351.2454,"ARG_OF_PERICENTER":92.4418,"MEAN_ANOMALY":267.6955,"EPHEMERIS_TYPE":0,"CLASSIFICATION_TYPE":"U","NORAD_CAT_ID":47264,"ELEMENT_SET_NO":999,"REV_AT_EPOCH":26433,"BSTAR":0.00088877,"MEAN_MOTION_DOT":3.32e-06,"MEAN_MOTION_DDOT":0.0},{"OBJECT_NAME":"ONEWEB-0119","OBJECT_ID":"2020-100H","EPOCH":"2026-06-14T05:33:53.182656","MEAN_MOTION":13.12442833,"ECCENTRICITY":0.0001808,"INCLINATION":87.8937,"RA_OF_ASC_NODE":351.2572,"ARG_OF_PERICENTER":90.5708,"MEAN_ANOMALY":269.5628,"EPHEMERIS_TYPE":0,"CLASSIFICATION_TYPE":"U","NORAD_CAT_ID":47265,"ELEMENT_SET_NO":999,"REV_AT_EPOCH":26431,"BSTAR":-0.0011191,"MEAN_MOTION_DOT":-3.9e-06,"MEAN_MOTION_DDOT":0.0}]